{
    "links": {
        "self": "http://www.neowsapp.com/rest/v1/neo/54081290?api_key=iIulBulltgU6a56xZRHN4H3l9WmuAYTsLGpBGhQ2"
    },
    "id": "54081290",
    "neo_reference_id": "54081290",
    "name": "(2020 US6)",
    "designation": "2020 US6",
    "nasa_jpl_url": "http://ssd.jpl.nasa.gov/sbdb.cgi?sstr=54081290",
    "absolute_magnitude_h": 20.792,
    "estimated_diameter": {
        "kilometers": {
            "estimated_diameter_min": 0.1845673925,
            "estimated_diameter_max": 0.412705236
        },
        "meters": {
            "estimated_diameter_min": 184.5673924559,
            "estimated_diameter_max": 412.7052359612
        },
        "miles": {
            "estimated_diameter_min": 0.1146848252,
            "estimated_diameter_max": 0.2564430652
        },
        "feet": {
            "estimated_diameter_min": 605.5360838649,
            "estimated_diameter_max": 1354.0198463508
        }
    },
    "is_potentially_hazardous_asteroid": false,
    "close_approach_data": [
        {
            "close_approach_date": "2020-07-25",
            "close_approach_date_full": "2020-Jul-25 23:17",
            "epoch_date_close_approach": 1595719020000,
            "relative_velocity": {
                "kilometers_per_second": "5.7248907613",
                "kilometers_per_hour": "20609.6067405827",
                "miles_per_hour": "12806.0081438915"
            },
            "miss_distance": {
                "astronomical": "0.2590013678",
                "lunar": "100.7515320742",
                "kilometers": "38746052.949966586",
                "miles": "24075680.8989514468"
            },
            "orbiting_body": "Earth"
        }
    ],
    "orbital_data": {
        "orbit_id": "3",
        "orbit_determination_date": "2020-11-22 05:19:49",
        "first_observation_date": "2020-10-16",
        "last_observation_date": "2020-11-19",
        "data_arc_in_days": 34,
        "observations_used": 18,
        "orbit_uncertainty": "7",
        "minimum_orbit_intersection": ".245329",
        "jupiter_tisserand_invariant": "3.059",
        "epoch_osculation": "2459000.5",
        "eccentricity": ".5601598969551186",
        "semi_major_axis": "2.796290831169322",
        "inclination": "9.318583943758892",
        "ascending_node_longitude": "87.09182258331883",
        "orbital_period": "1707.937345630117",
        "perihelion_distance": "1.229920847324972",
        "perihelion_argument": "225.6258770583888",
        "aphelion_distance": "4.362660815013673",
        "perihelion_time": "2459071.305026744839",
        "mean_anomaly": "345.0756764038449",
        "mean_motion": ".2107805657631917",
        "equinox": "J2000",
        "orbit_class": {
            "orbit_class_type": "AMO",
            "orbit_class_description": "Near-Earth asteroid orbits similar to that of 1221 Amor",
            "orbit_class_range": "1.017 AU < q (perihelion) < 1.3 AU"
        }
    },
    "is_sentry_object": false
}